NORAD_CAT_ID,OBJECT_NAME,OBJECT_TYPE,EPOCH,MEAN_MOTION,ECCENTRICITY,INCLINATION,RA_OF_ASC_NODE,ARG_OF_PERICENTER,MEAN_ANOMALY,BSTAR,MEAN_MOTION_DOT,MEAN_MOTION_DDOT,TLE_LINE0,TLE_LINE1,TLE_LINE2,SEMIMAJOR_AXIS,PERIOD,APOGEE,PERIGEE,DECAYED
51815.0,STARLINK-3604,PAYLOAD,2022-10-31 10:57:15,15.0883113,0.0001179,53.219,69.4208,81.4732,278.6394,-8.2472e-05,-1.6e-05,0.0,0 STARLINK-3604,1 51815U 22017AZ  22304.45643114 -.00001600  00000-0 -82472-4 0  9997,2 51815  53.2190  69.4208 0001179  81.4732 278.6394 15.08831130 39117,6917.908,95.438,540.5880000000002,538.957,0.0
51815.0,STARLINK-3604,PAYLOAD,2022-10-31 18:54:11,15.08834927,0.0001318,53.2194,67.9337,83.4544,276.6598,-4.6223e-05,-1.023e-05,0.0,0 STARLINK-3604,1 51815U 22017AZ  22304.78762930 -.00001023  00000-0 -46223-4 0  9994,2 51815  53.2194  67.9337 0001318  83.4544 276.6598 15.08834927 39284,6917.896,95.438,540.673,538.849,0.0
51815.0,STARLINK-3604,PAYLOAD,2022-11-01 01:15:43,15.08841372,0.0001313,53.2196,66.7443,83.0296,277.0845,4.6619e-05,4.54e-06,0.0,0 STARLINK-3604,1 51815U 22017AZ  22305.05258291  .00000454  00000-0  46619-4 0  9999,2 51815  53.2196  66.7443 0001313  83.0296 277.0845 15.08841372 39323,6917.876,95.437,540.65,538.8330000000002,0.0
51815.0,STARLINK-3604,PAYLOAD,2022-11-01 10:48:02,15.08833911,0.0001506,53.2197,64.9612,89.8717,270.2448,4.4471e-05,4.2e-06,0.0,0 STARLINK-3604,1 51815U 22017AZ  22305.45002861  .00000420  00000-0  44471-4 0  9990,2 51815  53.2197  64.9612 0001506  89.8717 270.2448 15.08833911 39265,6917.899,95.438,540.806,538.722,0.0
51815.0,STARLINK-3604,PAYLOAD,2022-11-01 17:09:35,15.08835007,0.0001426999999999,53.22,63.7715,86.34700000000002,273.7686,4.8227e-05,4.8e-06,0.0,0 STARLINK-3604,1 51815U 22017AZ  22305.71498921  .00000480  00000-0  48227-4 0  9994,2 51815  53.2200  63.7715 0001427  86.3470 273.7686 15.08835007 39429,6917.896,95.438,540.748,538.773,0.0
51815.0,STARLINK-3604,PAYLOAD,2022-11-02 13:49:35,15.08841534,0.0001516,53.2199,59.9057,83.912,276.2045,0.00017094,2.434e-05,0.0,0 STARLINK-3604,1 51815U 22017AZ  22306.57610501  .00002434  00000-0  17094-3 0  9997,2 51815  53.2199  59.9057 0001516  83.9120 276.2045 15.08841534 39436,6917.876,95.437,540.789,538.692,0.0
51815.0,STARLINK-3604,PAYLOAD,2022-11-02 18:35:45,15.08832119,0.0001584,53.22,59.0138,83.1546,276.9626,9.6827e-05,1.253e-05,0.0,0 STARLINK-3604,1 51815U 22017AZ  22306.77483442  .00001253  00000-0  96827-4 0  9991,2 51815  53.2200  59.0138 0001584  83.1546 276.9626 15.08832119 39463,6917.904,95.438,540.865,538.674,0.0
51815.0,STARLINK-3604,PAYLOAD,2022-11-03 00:57:17,15.08847587,0.0001232,53.2188,57.824,75.1287,284.9842,0.00010908,1.449e-05,0.0,0 STARLINK-3604,1 51815U 22017AZ  22307.03978338  .00001449  00000-0  10908-3 0  9996,2 51815  53.2188  57.8240 0001232  75.1287 284.9842 15.08847587 39623,6917.857,95.437,540.5740000000002,538.87,0.0
51815.0,STARLINK-3604,PAYLOAD,2022-11-03 12:04:59,15.08845458,0.0001511,53.2199,55.7432,83.7978,276.3186,0.00013572,1.873e-05,0.0,0 STARLINK-3604,1 51815U 22017AZ  22307.50346494  .00001873  00000-0  13572-3 0  9991,2 51815  53.2199  55.7432 0001511  83.7978 276.3186 15.08845458 39572,6917.864000000001,95.437,540.774,538.683,0.0
51815.0,STARLINK-3604,PAYLOAD,2022-11-03 18:26:31,15.08845716,0.0001482,53.2185,54.5534,72.3182,287.7972,0.00014624,2.041e-05,0.0,0 STARLINK-3604,1 51815U 22017AZ  22307.76842575  .00002041  00000-0  14624-3 0  9997,2 51815  53.2185  54.5534 0001482  72.3182 287.7972 15.08845716 39616,6917.863,95.437,540.753,538.703,0.0
51815.0,STARLINK-3604,PAYLOAD,2022-11-04 07:09:36,15.08860265,0.0001345,53.2184,52.176,60.375,299.7376,-3.134e-06,-3.38e-06,0.0,0 STARLINK-3604,1 51815U 22017AZ  22308.29833649 -.00000338  00000-0 -31340-5 0  9993,2 51815  53.2184  52.1760 0001345  60.3750 299.7376 15.08860265 39815,6917.818,95.436,540.614,538.753,0.0
51815.0,STARLINK-3604,PAYLOAD,2022-11-04 10:20:22,15.08856355,0.0001339,53.2177,51.5785,78.1749,281.9393,0.00016533,2.345e-05,0.0,0 STARLINK-3604,1 51815U 22017AZ  22308.43081657  .00002345  00000-0  16533-3 0  9996,2 51815  53.2177  51.5785 0001339  78.1749 281.9393 15.08856355 39711,6917.83,95.437,540.622,538.769,0.0
51815.0,STARLINK-3604,PAYLOAD,2022-11-04 16:41:55,15.08848498,0.0001243,53.2184,50.3904,73.257,286.8559,6.2591e-05,7.09e-06,0.0,0 STARLINK-3604,1 51815U 22017AZ  22308.69577907  .00000709  00000-0  62591-4 0  9990,2 51815  53.2184  50.3904 0001243  73.2570 286.8559 15.08848498 39875,6917.854,95.437,540.5790000000002,538.86,0.0
51815.0,STARLINK-3604,PAYLOAD,2022-11-05 11:46:33,15.08822925,0.0001175,53.2195,46.8231,66.2016,293.9099,-0.00025317,-4.313e-05,0.0,0 STARLINK-3604,1 51815U 22017AZ  22309.49067004 -.00004313  00000-0 -25317-3 0  9992,2 51815  53.2195  46.8231 0001175  66.2016 293.9099 15.08822925 39999,6917.933000000001,95.439,540.61,538.985,0.0
51815.0,STARLINK-3604,PAYLOAD,2022-11-05 13:21:57,15.08821238,0.0001284999999999,53.2195,46.5256,71.2065,288.9066,-0.00027186,-4.61e-05,0.0,0 STARLINK-3604,1 51815U 22017AZ  22309.55691200 -.00004610  00000-0 -27186-3 0  9996,2 51815  53.2195  46.5256 0001285  71.2065 288.9066 15.08821238 39887,6917.938,95.439,540.692,538.914,0.0
51815.0,STARLINK-3604,PAYLOAD,2022-11-05 18:08:07,15.08813676,0.0001243,53.2185,45.6331,71.4059,288.7068,-0.00034724,-5.806e-05,0.0,0 STARLINK-3604,1 51815U 22017AZ  22309.75563757 -.00005806  00000-0 -34724-3 0  9997,2 51815  53.2185  45.6331 0001243  71.4059 288.7068 15.08813676 39910,6917.9609999999975,95.439,540.686,538.966,0.0
51815.0,STARLINK-3604,PAYLOAD,2022-11-06 11:37:22,15.088220800000002,0.0001336,53.2181,42.3635,58.486,301.6263,-0.00012573,-2.287e-05,0.0,0 STARLINK-3604,1 51815U 22017AZ  22310.48428490 -.00002287  00000-0 -12573-3 0  9991,2 51815  53.2181  42.3635 0001336  58.4860 301.6263 15.08822080 40143,6917.935,95.439,540.724,538.876,0.0
51815.0,STARLINK-3604,PAYLOAD,2022-11-06 17:58:54,15.08828405,0.0001229,53.2175,41.1722,67.6174,292.4948,0.0002119,3.085e-05,0.0,0 STARLINK-3604,1 51815U 22017AZ  22310.74924352  .00003085  00000-0  21190-3 0  9998,2 51815  53.2175  41.1722 0001229  67.6174 292.4948 15.08828405 40189,6917.916,95.438,540.631,538.931,0.0
51815.0,STARLINK-3604,PAYLOAD,2022-11-07 16:14:18,15.08855393,0.0001440999999999,53.2177,37.0092,70.4638,289.651,0.00090515,0.00014153,0.0,0 STARLINK-3604,1 51815U 22017AZ  22311.67660872  .00014153  00000-0  90515-3 0  9990,2 51815  53.2177  37.0092 0001441  70.4638 289.6510 15.08855393 40323,6917.833000000001,95.437,540.695,538.701,0.0
51815.0,STARLINK-3604,PAYLOAD,2022-11-08 09:43:32,15.08867015,0.0001211,53.217,33.7376,78.4279,281.6849,0.00048517,7.448e-05,0.0,0 STARLINK-3604,1 51815U 22017AZ  22312.40523511  .00007448  00000-0  48517-3 0  9994,2 51815  53.2170  33.7376 0001211  78.4279 281.6849 15.08867015 40318,6917.7980000000025,95.436,540.501,538.825,0.0
51815.0,STARLINK-3604,PAYLOAD,2022-11-08 14:29:41,15.08864423,0.0001277,53.2166,32.8457,72.8222,287.291,0.00033643,5.074e-05,0.0,0 STARLINK-3604,1 51815U 22017AZ  22312.60395259  .00005074  00000-0  33643-3 0  9999,2 51815  53.2166  32.8457 0001277  72.8222 287.2910 15.08864423 40468,6917.806,95.436,540.554,538.7869999999998,0.0
51815.0,STARLINK-3604,PAYLOAD,2022-11-09 12:45:04,15.08826481,0.0001202,53.2167,28.683000000000003,90.0462,270.0668,-0.0012362,-0.00019901,0.0,0 STARLINK-3604,1 51815U 22017AZ  22313.53130176 -.00019901  00000-0 -12362-2 0  9997,2 51815  53.2167  28.6830 0001202  90.0462 270.0668 15.08826481 40487,6917.922,95.438,540.618,538.955,0.0
51815.0,STARLINK-3604,PAYLOAD,2022-11-09 17:31:14,15.08823348,0.0001429,53.2167,27.7908,66.2122,293.9019,-0.0010243,-0.00016545,0.0,0 STARLINK-3604,1 51815U 22017AZ  22313.73002714 -.00016545  00000-0 -10243-2 0  9992,2 51815  53.2167  27.7908 0001429  66.2122 293.9019 15.08823348 40632,6917.931,95.439,540.785,538.808,0.0
51815.0,STARLINK-3604,PAYLOAD,2022-11-10 11:00:30,15.0880296,0.0001413,53.2167,24.5204,66.0106,294.1034,-5.203e-05,-1.115e-05,0.0,0 STARLINK-3604,1 51815U 22017AZ  22314.45868378 -.00001115  00000-0 -52030-4 0  9997,2 51815  53.2167  24.5204 0001413  66.0106 294.1034 15.08802960 40625,6917.994000000002,95.44,540.836,538.881,0.0
51815.0,STARLINK-3604,PAYLOAD,2022-11-10 17:22:03,15.08811947,0.0001455,53.2166,23.3311,64.7201,295.3941,0.00058321,8.999e-05,0.0,0 STARLINK-3604,1 51815U 22017AZ  22314.72364757  .00008999  00000-0  58321-3 0  9992,2 51815  53.2166  23.3311 0001455  64.7201 295.3941 15.08811947 40666,6917.965999999999,95.439,540.8380000000002,538.825,0.0
51815.0,STARLINK-3604,PAYLOAD,2022-11-10 22:08:12,15.08825186,0.0001571999999999,53.2167,22.4391,65.7032,294.4124,0.0009827,0.0001538,0.0,0 STARLINK-3604,1 51815U 22017AZ  22314.92236831  .00015380  00000-0  98270-3 0  9994,2 51815  53.2167  22.4391 0001572  65.7032 294.4124 15.08825186 40818,6917.926,95.438,540.878,538.703,0.0
51815.0,STARLINK-3604,PAYLOAD,2022-11-11 10:51:17,15.08850327,0.000162,53.2163,20.0605,63.6271,296.4887,0.0012022,0.00018902,0.0,0 STARLINK-3604,1 51815U 22017AZ  22315.45228717  .00018902  00000-0  12022-2 0  9990,2 51815  53.2163  20.0605 0001620  63.6271 296.4887 15.08850327 40770,6917.849,95.437,540.835,538.5930000000002,0.0
51815.0,STARLINK-3604,PAYLOAD,2022-11-11 15:37:26,15.0885164,0.000154,53.2158,19.1682,61.483,298.6317,0.0010333,0.000162,0.0,0 STARLINK-3604,1 51815U 22017AZ  22315.65100659  .00016200  00000-0  10333-2 0  9998,2 51815  53.2158  19.1682 0001540  61.4830 298.6317 15.08851640 40801,6917.845,95.437,540.775,538.644,0.0
51815.0,STARLINK-3604,PAYLOAD,2022-11-12 10:42:04,15.088478899999998,0.0001513,53.2168,15.5988,64.0103,296.1045,0.00028332,4.225e-05,0.0,0 STARLINK-3604,1 51815U 22017AZ  22316.44588349  .00004225  00000-0  28332-3 0  9995,2 51815  53.2168  15.5988 0001513  64.0103 296.1045 15.08847890 41043,6917.856,95.437,540.768,538.675,0.0
